OBJECT_NAME,OBJECT_ID,EPOCH,MEAN_MOTION,ECCENTRICITY,INCLINATION,RA_OF_ASC_NODE,ARG_OF_PERICENTER,MEAN_ANOMALY,EPHEMERIS_TYPE,CLASSIFICATION_TYPE,NORAD_CAT_ID,ELEMENT_SET_NO,REV_AT_EPOCH,BSTAR,MEAN_MOTION_DOT,MEAN_MOTION_DDOT
SAR-LUPE 2,2007-030A,2026-06-29T11:25:06.748320,15.51758356,.000265,98.1061,286.4474,176.3276,183.7994,0,U,31797,999,5884,.67534E-3,.40324E-3,0
SAPPHIRE,2013-009C,2026-06-29T12:02:00.445056,14.35243894,.0010625,98.4264,359.6649,206.8786,153.1851,0,U,39088,999,69834,.5015E-4,.101E-5,0
PRAETORIAN SDA_602,2025-203A,2026-06-25T21:56:40.330752,13.84278827,.00062643,81.3029,2.6841,162.2891,197.8485,0,U,65565,999,3990,.82305867E-4,.104E-5,0
PRAETORIAN SDA_603,2025-203B,2026-06-29T13:24:00.870624,13.83906760,.0009998,81.3038,359.2331,154.4122,205.7531,0,U,65566,999,4041,.11913E-3,.144E-5,0
PRAETORIAN SDA_604,2025-203C,2026-06-29T12:19:15.909312,13.83048835,.0005942,81.3053,359.7056,158.4344,201.7063,0,U,65567,999,4038,.55141E-4,.72E-6,0
PRAETORIAN SDA_605,2025-203D,2026-06-29T13:08:32.286624,13.83435081,.0008744,81.3018,359.3250,150.3892,209.7761,0,U,65568,999,4040,.25352E-4,.4E-6,0
PRAETORIAN SDA_606,2025-203E,2026-06-29T12:46:28.674048,13.83198797,.0006633,81.3053,359.5702,153.2725,206.8775,0,U,65569,999,4039,.2618E-4,.41E-6,0
PRAETORIAN SDA_607,2025-203F,2026-06-29T12:44:03.852096,13.84285872,.0009306,81.3036,359.2117,154.5521,205.6095,0,U,65570,999,4041,.18302E-3,.216E-5,0
PRAETORIAN SDA_608,2025-203G,2026-06-29T12:17:31.005024,13.83817975,.0006451,81.3007,359.3957,157.5280,202.6160,0,U,65571,999,4039,.60243E-4,.79E-6,0
PRAETORIAN SDA_609,2025-203H,2026-06-29T12:19:33.426912,13.84210346,.0007354,81.3050,359.3754,152.7473,207.4071,0,U,65572,999,4040,.16089E-3,.191E-5,0
PRAETORIAN SDA_610,2025-203J,2026-06-29T11:48:57.820032,13.83768781,.000721,81.3007,359.3731,157.3541,202.7935,0,U,65573,999,4039,.51665E-4,.69E-6,0
PRAETORIAN SDA_611,2025-203K,2026-06-29T11:55:59.211840,13.83310786,.0005964,81.3011,359.5426,161.0651,199.0728,0,U,65574,999,4038,.15191E-3,.179E-5,0
PRAETORIAN SDA_612,2025-203L,2026-06-29T13:02:56.046336,13.85040703,.0009779,81.3032,359.0561,153.6205,206.5452,0,U,65575,999,4042,.24047E-3,.284E-5,0
PRAETORIAN SDA_613,2025-203M,2026-06-29T12:12:40.136832,13.82766185,.0006227,81.2999,359.5387,151.5678,208.5819,0,U,65576,999,4038,.39545E-4,.55E-6,0
PRAETORIAN SDA_614,2025-203N,2026-06-29T12:50:42.523296,13.84778199,.0007704,81.3013,359.1446,151.0974,209.0611,0,U,65577,999,4042,.30541E-4,.46E-6,0
PRAETORIAN SDA_615,2025-203P,2026-06-29T12:21:48.441600,13.84437697,.0009511,81.3027,359.1348,152.3725,207.7939,0,U,65578,999,4041,.11071E-3,.136E-5,0
PRAETORIAN SDA_616,2025-203Q,2026-06-29T11:55:23.100096,13.83268966,.0005831,81.3064,359.6970,159.2643,200.8751,0,U,65579,999,4038,.16395E-3,.192E-5,0
PRAETORIAN SDA_617,2025-203R,2026-06-29T12:28:00.420384,13.83150883,.0007934,81.3037,359.5058,151.4416,208.7176,0,U,65580,999,4039,.42651E-4,.59E-6,0
PRAETORIAN SDA_618,2025-203S,2026-06-26T10:39:43.185312,13.84669977,.0010122,81.3021,1.9070,162.7241,197.4262,0,U,65581,999,3999,.14181E-4,.28E-6,0
PRAETORIAN SDA_619,2025-203T,2026-06-29T12:32:44.159712,13.83807159,.00086,81.3048,359.3691,152.5548,207.6064,0,U,65582,999,4103,.1092E-3,.133E-5,0
PRAETORIAN SDA_620,2025-203U,2026-06-29T09:47:10.864896,13.83619194,.0008207,81.3029,359.4982,148.9188,211.2455,0,U,65583,999,4038,.14414E-3,.171E-5,0
PRAETORIAN SDA_621,2025-203V,2026-06-29T12:35:20.550624,13.83802415,.000801,81.3020,359.3036,146.5089,213.6575,0,U,65584,999,4040,.4539E-4,.62E-6,0
PRAETORIAN SDA_601,2025-203W,2026-06-29T12:01:10.905024,13.83169096,.0005959,81.3038,359.6360,162.2049,197.9316,0,U,65585,999,4038,.10202E-3,.124E-5,0
VICTUS HAZE PUMA,2026-142A,2026-06-29T17:13:08.829120,15.20742928,.0020968,97.4477,78.1978,281.9810,77.9075,0,U,69646,999,157,.19753E-3,.4301E-4,0
