SAR-LUPE 2              
1 31797U 07030A   26180.47577255  .00040324  00000+0  67534-3 0  9996
2 31797  98.1061 286.4474 0002650 176.3276 183.7994 15.51758356 58846
SAPPHIRE                
1 39088U 13009C   26180.50139404  .00000101  00000+0  50150-4 0  9990
2 39088  98.4264 359.6649 0010625 206.8786 153.1851 14.35243894698343
PRAETORIAN SDA_602      
1 65565U 25203A   26176.91435568  .00000104  00000+0  82306-4 0  9999
2 65565  81.3029   2.6841 0006264 162.2891 197.8485 13.84278827 39903
PRAETORIAN SDA_603      
1 65566U 25203B   26180.55834341  .00000144  00000+0  11913-3 0  9996
2 65566  81.3038 359.2331 0009998 154.4122 205.7531 13.83906760 40418
PRAETORIAN SDA_604      
1 65567U 25203C   26180.51337858  .00000072  00000+0  55141-4 0  9996
2 65567  81.3053 359.7056 0005942 158.4344 201.7063 13.83048835 40382
PRAETORIAN SDA_605      
1 65568U 25203D   26180.54759591  .00000040  00000+0  25352-4 0  9998
2 65568  81.3018 359.3250 0008744 150.3892 209.7761 13.83435081 40407
PRAETORIAN SDA_606      
1 65569U 25203E   26180.53227632  .00000041  00000+0  26180-4 0  9995
2 65569  81.3053 359.5702 0006633 153.2725 206.8775 13.83198797 40394
PRAETORIAN SDA_607      
1 65570U 25203F   26180.53060014  .00000216  00000+0  18302-3 0  9996
2 65570  81.3036 359.2117 0009306 154.5521 205.6095 13.84285872 40419
PRAETORIAN SDA_608      
1 65571U 25203G   26180.51216441  .00000079  00000+0  60243-4 0  9991
2 65571  81.3007 359.3957 0006451 157.5280 202.6160 13.83817975 40395
PRAETORIAN SDA_609      
1 65572U 25203H   26180.51358133  .00000191  00000+0  16089-3 0  9990
2 65572  81.3050 359.3754 0007354 152.7473 207.4071 13.84210346 40409
PRAETORIAN SDA_610      
1 65573U 25203J   26180.49233588  .00000069  00000+0  51665-4 0  9998
2 65573  81.3007 359.3731 0007210 157.3541 202.7935 13.83768781 40390
PRAETORIAN SDA_611      
1 65574U 25203K   26180.49721310  .00000179  00000+0  15191-3 0  9999
2 65574  81.3011 359.5426 0005964 161.0651 199.0728 13.83310786 40382
PRAETORIAN SDA_612      
1 65575U 25203L   26180.54370424  .00000284  00000+0  24047-3 0  9999
2 65575  81.3032 359.0561 0009779 153.6205 206.5452 13.85040703 40425
PRAETORIAN SDA_613      
1 65576U 25203M   26180.50879788  .00000055  00000+0  39545-4 0  9999
2 65576  81.2999 359.5387 0006227 151.5678 208.5819 13.82766185 40384
PRAETORIAN SDA_614      
1 65577U 25203N   26180.53521439  .00000046  00000+0  30541-4 0  9997
2 65577  81.3013 359.1446 0007704 151.0974 209.0611 13.84778199 40421
PRAETORIAN SDA_615      
1 65578U 25203P   26180.51514400  .00000136  00000+0  11071-3 0  9992
2 65578  81.3027 359.1348 0009511 152.3725 207.7939 13.84437697 40416
PRAETORIAN SDA_616      
1 65579U 25203Q   26180.49679514  .00000192  00000+0  16395-3 0  9994
2 65579  81.3064 359.6970 0005831 159.2643 200.8751 13.83268966 40382
PRAETORIAN SDA_617      
1 65580U 25203R   26180.51944931  .00000059  00000+0  42651-4 0  9994
2 65580  81.3037 359.5058 0007934 151.4416 208.7176 13.83150883 40395
PRAETORIAN SDA_618      
1 65581U 25203S   26177.44424983  .00000028  00000+0  14181-4 0  9996
2 65581  81.3021   1.9070 0010122 162.7241 197.4262 13.84669977 39999
PRAETORIAN SDA_619      
1 65582U 25203T   26180.52273333  .00000133  00000+0  10920-3 0  9994
2 65582  81.3048 359.3691 0008600 152.5548 207.6064 13.83807159 41030
PRAETORIAN SDA_620      
1 65583U 25203U   26180.40776464  .00000171  00000+0  14414-3 0  9999
2 65583  81.3029 359.4982 0008207 148.9188 211.2455 13.83619194 40388
PRAETORIAN SDA_621      
1 65584U 25203V   26180.52454341  .00000062  00000+0  45390-4 0  9997
2 65584  81.3020 359.3036 0008010 146.5089 213.6575 13.83802415 40407
PRAETORIAN SDA_601      
1 65585U 25203W   26180.50082066  .00000124  00000+0  10202-3 0  9999
2 65585  81.3038 359.6360 0005959 162.2049 197.9316 13.83169096 40385
VICTUS HAZE PUMA        
1 69646U 26142A   26180.71746330  .00004301  00000+0  19753-3 0  9999
2 69646  97.4477  78.1978 0020968 281.9810  77.9075 15.20742928  1573
